[{"OBJECT_NAME":"METEOR-M2 3","OBJECT_ID":"2023-091A","EPOCH":"2026-03-09T22:59:41.369280","MEAN_MOTION":14.24037691,"ECCENTRICITY":0.000511,"INCLINATION":98.6213,"RA_OF_ASC_NODE":125.9119,"ARG_OF_PERICENTER":98.6128,"MEAN_ANOMALY":261.563,"EPHEMERIS_TYPE":0,"CLASSIFICATION_TYPE":"U","NORAD_CAT_ID":57166,"ELEMENT_SET_NO":999,"REV_AT_EPOCH":14039,"BSTAR":2.3891208e-5,"MEAN_MOTION_DOT":1.2e-7,"MEAN_MOTION_DDOT":0},{"OBJECT_NAME":"OPS 5058 (DMSP 5B F2)","OBJECT_ID":"1972-018A","EPOCH":"2026-03-09T22:51:18.291456","MEAN_MOTION":14.2546146,"ECCENTRICITY":0.00507972,"INCLINATION":99.1241,"RA_OF_ASC_NODE":258.7676,"ARG_OF_PERICENTER":20.1576,"MEAN_ANOMALY":340.1593,"EPHEMERIS_TYPE":0,"CLASSIFICATION_TYPE":"U","NORAD_CAT_ID":5903,"ELEMENT_SET_NO":999,"REV_AT_EPOCH":87607,"BSTAR":0.00011428573,"MEAN_MOTION_DOT":2.26e-6,"MEAN_MOTION_DDOT":0}]
